[
    {
        "Altitude(m)": 706560.3163731989,
        "Argument of Periapsis(deg)": 0.004556048474650827,
        "Eccentricity": 0.0,
        "Inclination(deg)": 45.0,
        "Latitude(deg)": 41.81102862493143,
        "Longitude(deg)": -147.4623304327664,
        "Mean Anomaly(deg)": 70.06778665899232,
        "RAAN(deg)": 249.99569922341678,
        "Satellite Name": "Constellation 1 1104",
        "Satellite Number": 1104,
        "Semi-Major Axis(m)": 7083131.272910544,
        "Time(s)": 76
    },
    {
        "Altitude(m)": 706564.6288910811,
        "Argument of Periapsis(deg)": 0.004615996480896233,
        "Eccentricity": 0.0,
        "Inclination(deg)": 45.0,
        "Latitude(deg)": 41.8306555040634,
        "Longitude(deg)": -147.38948965704918,
        "Mean Anomaly(deg)": 70.12848779924221,
        "RAAN(deg)": 249.99564263425123,
        "Satellite Name": "Constellation 1 1104",
        "Satellite Number": 1104,
        "Semi-Major Axis(m)": 7083131.272910544,
        "Time(s)": 77
    },
    {
        "Altitude(m)": 706568.9311586333,
        "Argument of Periapsis(deg)": 0.004675944487141638,
        "Eccentricity": 0.0,
        "Inclination(deg)": 45.0,
        "Latitude(deg)": 41.850230754285676,
        "Longitude(deg)": -147.31660195189343,
        "Mean Anomaly(deg)": 70.18918893949214,
        "RAAN(deg)": 249.9955860450856,
        "Satellite Name": "Constellation 1 1104",
        "Satellite Number": 1104,
        "Semi-Major Axis(m)": 7083131.272910544,
        "Time(s)": 78
    },
    {
        "Altitude(m)": 706573.223150173,
        "Argument of Periapsis(deg)": 0.004735892493387044,
        "Eccentricity": 0.0,
        "Inclination(deg)": 45.0,
        "Latitude(deg)": 41.86975430932628,
        "Longitude(deg)": -147.24366738015195,
        "Mean Anomaly(deg)": 70.24989007974203,
        "RAAN(deg)": 249.99552945592004,
        "Satellite Name": "Constellation 1 1104",
        "Satellite Number": 1104,
        "Semi-Major Axis(m)": 7083131.272910544,
        "Time(s)": 79
    },
    {
        "Altitude(m)": 706577.5048400835,
        "Argument of Periapsis(deg)": 0.004795840499632449,
        "Eccentricity": 0.0,
        "Inclination(deg)": 45.0,
        "Latitude(deg)": 41.88922610298426,
        "Longitude(deg)": -147.17068600522282,
        "Mean Anomaly(deg)": 70.31059121999192,
        "RAAN(deg)": 249.99547286675448,
        "Satellite Name": "Constellation 1 1104",
        "Satellite Number": 1104,
        "Semi-Major Axis(m)": 7083131.272910544,
        "Time(s)": 80
    },
    {
        "Altitude(m)": 706581.7762028147,
        "Argument of Periapsis(deg)": 0.004855788505877855,
        "Eccentricity": 0.0,
        "Inclination(deg)": 45.0,
        "Latitude(deg)": 41.908646069130285,
        "Longitude(deg)": -147.09765789104958,
        "Mean Anomaly(deg)": 70.37129236024181,
        "RAAN(deg)": 249.99541627758893,
        "Satellite Name": "Constellation 1 1104",
        "Satellite Number": 1104,
        "Semi-Major Axis(m)": 7083131.272910544,
        "Time(s)": 81
    },
    {
        "Altitude(m)": 706586.0372128858,
        "Argument of Periapsis(deg)": 0.00491573651212326,
        "Eccentricity": 0.0,
        "Inclination(deg)": 45.0,
        "Latitude(deg)": 41.92801414170797,
        "Longitude(deg)": -147.02458327021907,
        "Mean Anomaly(deg)": 70.43199350049174,
        "RAAN(deg)": 249.99535968842332,
        "Satellite Name": "Constellation 1 1104",
        "Satellite Number": 1104,
        "Semi-Major Axis(m)": 7083131.272910544,
        "Time(s)": 82
    },
    {
        "Altitude(m)": 706590.2878448702,
        "Argument of Periapsis(deg)": 0.004975684518368666,
        "Eccentricity": 0.0,
        "Inclination(deg)": 45.0,
        "Latitude(deg)": 41.94733025473342,
        "Longitude(deg)": -146.95146187157488,
        "Mean Anomaly(deg)": 70.49269464074162,
        "RAAN(deg)": 249.99530309925774,
        "Satellite Name": "Constellation 1 1104",
        "Satellite Number": 1104,
        "Semi-Major Axis(m)": 7083131.272910544,
        "Time(s)": 83
    },
    {
        "Altitude(m)": 706594.5280734224,
        "Argument of Periapsis(deg)": 0.005035632524614072,
        "Eccentricity": 0.0,
        "Inclination(deg)": 45.0,
        "Latitude(deg)": 41.966594342297874,
        "Longitude(deg)": -146.87829392879854,
        "Mean Anomaly(deg)": 70.55339578099152,
        "RAAN(deg)": 249.9952465100922,
        "Satellite Name": "Constellation 1 1104",
        "Satellite Number": 1104,
        "Semi-Major Axis(m)": 7083131.272910544,
        "Time(s)": 84
    },
    {
        "Altitude(m)": 706598.7578732527,
        "Argument of Periapsis(deg)": 0.0050955805308594785,
        "Eccentricity": 0.0,
        "Inclination(deg)": 45.0,
        "Latitude(deg)": 41.9858063385674,
        "Longitude(deg)": -146.80507950802334,
        "Mean Anomaly(deg)": 70.61409692124145,
        "RAAN(deg)": 249.99518992092663,
        "Satellite Name": "Constellation 1 1104",
        "Satellite Number": 1104,
        "Semi-Major Axis(m)": 7083131.272910544,
        "Time(s)": 85
    },
    {
        "Altitude(m)": 706602.977219138,
        "Argument of Periapsis(deg)": 0.005155528537104883,
        "Eccentricity": 0.0,
        "Inclination(deg)": 45.0,
        "Latitude(deg)": 42.00496617778401,
        "Longitude(deg)": -146.7318186759317,
        "Mean Anomaly(deg)": 70.67479806149134,
        "RAAN(deg)": 249.99513333176108,
        "Satellite Name": "Constellation 1 1104",
        "Satellite Number": 1104,
        "Semi-Major Axis(m)": 7083131.272910544,
        "Time(s)": 86
    },
    {
        "Altitude(m)": 706607.1860859285,
        "Argument of Periapsis(deg)": 0.0052154765433502885,
        "Eccentricity": 0.0,
        "Inclination(deg)": 45.0,
        "Latitude(deg)": 42.024073794266464,
        "Longitude(deg)": -146.65851149975555,
        "Mean Anomaly(deg)": 70.73549920174122,
        "RAAN(deg)": 249.99507674259547,
        "Satellite Name": "Constellation 1 1104",
        "Satellite Number": 1104,
        "Semi-Major Axis(m)": 7083131.272910544,
        "Time(s)": 87
    },
    {
        "Altitude(m)": 706611.3844485247,
        "Argument of Periapsis(deg)": 0.005275424549595694,
        "Eccentricity": 0.0,
        "Inclination(deg)": 45.0,
        "Latitude(deg)": 42.04312912241128,
        "Longitude(deg)": -146.5851580472773,
        "Mean Anomaly(deg)": 70.79620034199111,
        "RAAN(deg)": 249.9950201534299,
        "Satellite Name": "Constellation 1 1104",
        "Satellite Number": 1104,
        "Semi-Major Axis(m)": 7083131.272910544,
        "Time(s)": 88
    },
    {
        "Altitude(m)": 706615.5722819096,
        "Argument of Periapsis(deg)": 0.0053353725558411,
        "Eccentricity": 0.0,
        "Inclination(deg)": 45.0,
        "Latitude(deg)": 42.062132096693624,
        "Longitude(deg)": -146.51175855492718,
        "Mean Anomaly(deg)": 70.856901482241,
        "RAAN(deg)": 249.99496356426434,
        "Satellite Name": "Constellation 1 1104",
        "Satellite Number": 1104,
        "Semi-Major Axis(m)": 7083131.272910544,
        "Time(s)": 89
    },
    {
        "Altitude(m)": 706619.7495611256,
        "Argument of Periapsis(deg)": 0.005395320562086505,
        "Eccentricity": 0.0,
        "Inclination(deg)": 45.0,
        "Latitude(deg)": 42.081082651667295,
        "Longitude(deg)": -146.4383127553959,
        "Mean Anomaly(deg)": 70.91760262249093,
        "RAAN(deg)": 249.9949069750988,
        "Satellite Name": "Constellation 1 1104",
        "Satellite Number": 1104,
        "Semi-Major Axis(m)": 7083131.272910544,
        "Time(s)": 90
    },
    {
        "Altitude(m)": 706623.916261286,
        "Argument of Periapsis(deg)": 0.00545526856833191,
        "Eccentricity": 0.0,
        "Inclination(deg)": 45.0,
        "Latitude(deg)": 42.09998072196706,
        "Longitude(deg)": -146.36482088621756,
        "Mean Anomaly(deg)": 70.97830376274078,
        "RAAN(deg)": 249.99485038593318,
        "Satellite Name": "Constellation 1 1104",
        "Satellite Number": 1104,
        "Semi-Major Axis(m)": 7083131.272910544,
        "Time(s)": 91
    },
    {
        "Altitude(m)": 706628.0723575597,
        "Argument of Periapsis(deg)": 0.005515216574577317,
        "Eccentricity": 0.0,
        "Inclination(deg)": 45.0,
        "Latitude(deg)": 42.11882624230851,
        "Longitude(deg)": -146.2912830173817,
        "Mean Anomaly(deg)": 71.03900490299075,
        "RAAN(deg)": 249.99479379676762,
        "Satellite Name": "Constellation 1 1104",
        "Satellite Number": 1104,
        "Semi-Major Axis(m)": 7083131.272910544,
        "Time(s)": 92
    },
    {
        "Altitude(m)": 706632.2178251938,
        "Argument of Periapsis(deg)": 0.005575164580822722,
        "Eccentricity": 0.0,
        "Inclination(deg)": 45.0,
        "Latitude(deg)": 42.137619147489175,
        "Longitude(deg)": -146.21769921943127,
        "Mean Anomaly(deg)": 71.0997060432406,
        "RAAN(deg)": 249.99473720760207,
        "Satellite Name": "Constellation 1 1104",
        "Satellite Number": 1104,
        "Semi-Major Axis(m)": 7083131.272910544,
        "Time(s)": 93
    },
    {
        "Altitude(m)": 706636.3526395005,
        "Argument of Periapsis(deg)": 0.005635112587068129,
        "Eccentricity": 0.0,
        "Inclination(deg)": 45.0,
        "Latitude(deg)": 42.15635937238937,
        "Longitude(deg)": -146.14406956346298,
        "Mean Anomaly(deg)": 71.16040718349048,
        "RAAN(deg)": 249.9946806184365,
        "Satellite Name": "Constellation 1 1104",
        "Satellite Number": 1104,
        "Semi-Major Axis(m)": 7083131.272910544,
        "Time(s)": 94
    }
]